NORAD_CAT_ID,OBJECT_NAME,OBJECT_TYPE,EPOCH,MEAN_MOTION,ECCENTRICITY,INCLINATION,RA_OF_ASC_NODE,ARG_OF_PERICENTER,MEAN_ANOMALY,BSTAR,MEAN_MOTION_DOT,MEAN_MOTION_DDOT,TLE_LINE0,TLE_LINE1,TLE_LINE2,SEMIMAJOR_AXIS,PERIOD,APOGEE,PERIGEE,DECAYED
53851.0,STARLINK-4755,PAYLOAD,2023-11-03 20:48:00,15.08840128,0.000175,53.2163,180.322,104.7925,255.3261,8.4715e-05,1.06e-05,0.0,0 STARLINK-4755,1 53851U 22114AK  23307.86667473  .00001060  00000-0  84715-4 0  9990,2 53851  53.2163 180.3220 0001750 104.7925 255.3261 15.08840128 63089,6917.88,95.438,540.956,538.534,0.0
53851.0,STARLINK-4755,PAYLOAD,2023-11-03 22:23:23,15.08839446,0.0001553,53.2159,180.0248,90.5697,269.5473,1.2197e-05,-9.4e-07,0.0,0 STARLINK-4755,1 53851U 22114AK  23307.93291546 -.00000094  00000-0  12197-4 0  9994,2 53851  53.2159 180.0248 0001553  90.5697 269.5473 15.08839446 63634,6917.882,95.438,540.821,538.673,0.0
53851.0,STARLINK-4755,PAYLOAD,2023-11-04 01:34:10,15.08841286,0.0001397,53.2161,179.4301,87.2667,272.8485,0.00011627,1.563e-05,0.0,0 STARLINK-4755,1 53851U 22114AK  23308.06539525  .00001563  00000-0  11627-3 0  9998,2 53851  53.2161 179.4301 0001397  87.2667 272.8485 15.08841286 63652,6917.876,95.437,540.708,538.775,0.0
53851.0,STARLINK-4755,PAYLOAD,2023-11-04 22:14:10,15.08848489,0.0001326,53.2158,175.5662,86.5609,273.5535,0.00023743,3.494e-05,0.0,0 STARLINK-4755,1 53851U 22114AK  23308.92651210  .00003494  00000-0  23743-3 0  9996,2 53851  53.2158 175.5662 0001326  86.5609 273.5535 15.08848489 63785,6917.854,95.437,540.637,538.802,0.0
53851.0,STARLINK-4755,PAYLOAD,2023-11-05 07:46:29,15.08848926,0.0001237,53.2158,173.7824,97.3698,262.7435,0.00030014,4.493e-05,0.0,0 STARLINK-4755,1 53851U 22114AK  23309.32395088  .00004493  00000-0  30014-3 0  9998,2 53851  53.2158 173.7824 0001237  97.3698 262.7435 15.08848926 63846,6917.853,95.437,540.574,538.862,0.0
53851.0,STARLINK-4755,PAYLOAD,2023-11-05 22:04:56,15.08874138,0.0001317,53.2154,171.1039,96.6618,263.4524,0.000691,0.00010737,0.0,0 STARLINK-4755,1 53851U 22114AK  23309.92009963  .00010737  00000-0  69100-3 0  9994,2 53851  53.2154 171.1039 0001317  96.6618 263.4524 15.08874138 63936,6917.776,95.435,540.552,538.73,0.0
53851.0,STARLINK-4755,PAYLOAD,2023-11-06 01:15:42,15.08877908,0.0001342,53.2152,170.509,95.7164,264.3981,0.00071247,0.00011081,0.0,0 STARLINK-4755,1 53851U 22114AK  23310.05257614  .00011081  00000-0  71247-3 0  9996,2 53851  53.2152 170.5090 0001342  95.7164 264.3981 15.08877908 63416,6917.765,95.435,540.558,538.701,0.0
53851.0,STARLINK-4755,PAYLOAD,2023-11-06 07:37:15,15.08860403,0.0001311,53.2155,169.3197,76.5734,283.5404,0.00029229,4.369e-05,0.0,0 STARLINK-4755,1 53851U 22114AK  23310.31753892  .00004369  00000-0  29229-3 0  9998,2 53851  53.2155 169.3197 0001311  76.5734 283.5404 15.08860403 63458,6917.818,95.436,540.59,538.776,0.0
53851.0,STARLINK-4755,PAYLOAD,2023-11-06 18:44:58,15.08816007,0.0002297,53.2159,167.2396,56.5765,303.5447,-0.00070374,-0.00011464,0.0,0 STARLINK-4755,1 53851U 22114AK  23310.78123620 -.00011464  00000-0 -70374-3 0  9992,2 53851  53.2159 167.2396 0002297  56.5765 303.5447 15.08816007 63525,6917.954,95.439,541.408,538.23,0.0
53851.0,STARLINK-4755,PAYLOAD,2023-11-06 21:55:45,15.0879355,0.0001403,53.216,166.6455,78.0872,282.0277,-0.0011804,-0.00019001,0.0,0 STARLINK-4755,1 53851U 22114AK  23310.91372262 -.00019001  00000-0 -11804-2 0  9992,2 53851  53.2160 166.6455 0001403  78.0872 282.0277 15.08793550 64083,6918.022,95.44,540.858,538.917,0.0
53851.0,STARLINK-4755,PAYLOAD,2023-11-07 07:28:05,15.08803026,0.0001308,53.2153,164.8609,97.9916,262.1225,-0.00058683,-9.606e-05,0.0,0 STARLINK-4755,1 53851U 22114AK  23311.31117082 -.00009606  00000-0 -58683-3 0  9991,2 53851  53.2153 164.8609 0001308  97.9916 262.1225 15.08803026 63608,6917.993,95.44,540.763,538.954,0.0
53851.0,STARLINK-4755,PAYLOAD,2023-11-07 21:46:34,15.08814882,0.000131,53.2149,162.1845,103.3463,256.7675,0.00013105,1.797e-05,0.0,0 STARLINK-4755,1 53851U 22114AK  23311.90733921  .00001797  00000-0  13105-3 0  9993,2 53851  53.2149 162.1845 0001310 103.3463 256.7675 15.08814882 63697,6917.957,95.439,540.728,538.916,0.0
53851.0,STARLINK-4755,PAYLOAD,2023-11-08 20:01:58,15.08856993,0.0001364,53.2149,158.0229,92.6573,267.4575,0.0012855,0.00020239,0.0,0 STARLINK-4755,1 53851U 22114AK  23312.83470535  .00020239  00000-0  12855-2 0  9997,2 53851  53.2149 158.0229 0001364  92.6573 267.4575 15.08856993 63831,6917.828,95.436,540.637,538.75,0.0
53851.0,STARLINK-4755,PAYLOAD,2023-11-08 21:37:21,15.08859911,0.0001369,53.2149,157.7256,91.4816,268.6333,0.0013042,0.00020541,0.0,0 STARLINK-4755,1 53851U 22114AK  23312.90094456  .00020541  00000-0  13042-2 0  9994,2 53851  53.2149 157.7256 0001369  91.4816 268.6333 15.08859911 64388,6917.82,95.436,540.632,538.737,0.0
53851.0,STARLINK-4755,PAYLOAD,2023-11-09 19:52:44,15.08877069,0.0001358,53.2152,153.561,90.5114,269.6033,0.0012435,0.00019578,0.0,0 STARLINK-4755,1 53851U 22114AK  23313.82829091  .00019578  00000-0  12435-2 0  9990,2 53851  53.2152 153.5610 0001358  90.5114 269.6033 15.08877069 63986,6917.767,95.435,540.572,538.693,0.0
53851.0,STARLINK-4755,PAYLOAD,2023-11-10 07:00:25,15.08860815,0.0001495,53.2151,151.4783,93.9387,266.1776,0.0010047,0.00015747,0.0,0 STARLINK-4755,1 53851U 22114AK  23314.29196748  .00015747  00000-0  10047-2 0  9999,2 53851  53.2151 151.4783 0001495  93.9387 266.1776 15.08860815 64050,6917.817,95.436,540.716,538.648,0.0
53851.0,STARLINK-4755,PAYLOAD,2023-11-10 19:43:30,15.08853448,0.0001255,53.2152,149.0993,91.6249,268.4887,0.00014732,2.058e-05,0.0,0 STARLINK-4755,1 53851U 22114AK  23314.82188426  .00002058  00000-0  14732-3 0  9999,2 53851  53.2152 149.0993 0001255  91.6249 268.4887 15.08853448 64134,6917.839,95.437,540.572,538.836,0.0
53851.0,STARLINK-4755,PAYLOAD,2023-11-11 13:12:45,15.08847764,0.0001351,53.2148,145.8275,90.1884,269.9263,0.00019416,2.804e-05,0.0,0 STARLINK-4755,1 53851U 22114AK  23315.55052343  .00002804  00000-0  19416-3 0  9991,2 53851  53.2148 145.8275 0001351  90.1884 269.9263 15.08847764 64781,6917.857,95.437,540.656,538.787,0.0
53851.0,STARLINK-4755,PAYLOAD,2023-11-11 19:34:17,15.08852367,0.0001379,53.2149,144.6384,91.2751,268.8399,-2.3883e-05,-6.68e-06,0.0,0 STARLINK-4755,1 53851U 22114AK  23315.81548024 -.00000668  00000-0 -23883-4 0  9998,2 53851  53.2149 144.6384 0001379  91.2751 268.8399 15.08852367 64283,6917.843,95.437,540.662,538.754,0.0
53851.0,STARLINK-4755,PAYLOAD,2023-11-12 13:03:32,15.0884178,0.0001297,53.215,141.3671,88.7954,271.3186,7.6962e-05,9.37e-06,0.0,0 STARLINK-4755,1 53851U 22114AK  23316.54412309  .00000937  00000-0  76962-4 0  9998,2 53851  53.2150 141.3671 0001297  88.7954 271.3186 15.08841780 64935,6917.875,95.437,540.637,538.843,0.0
53851.0,STARLINK-4755,PAYLOAD,2023-11-12 19:25:04,15.0884377,0.000126,53.2162,140.1778,89.7802,270.3334,0.0001126,1.505e-05,0.0,0 STARLINK-4755,1 53851U 22114AK  23316.80908210  .00001505  00000-0  11260-3 0  9999,2 53851  53.2162 140.1778 0001260  89.7802 270.3334 15.08843770 64436,6917.869,95.437,540.606,538.862,0.0
53851.0,STARLINK-4755,PAYLOAD,2023-11-13 04:57:23,15.08843926,0.000125,53.2163,138.3935,88.0863,272.0273,8.0757e-05,9.98e-06,0.0,0 STARLINK-4755,1 53851U 22114AK  23317.20652165  .00000998  00000-0  80757-4 0  9992,2 53851  53.2163 138.3935 0001250  88.0863 272.0273 15.08843926 65030,6917.868,95.437,540.598,538.869,0.0
53851.0,STARLINK-4755,PAYLOAD,2023-11-13 19:15:52,15.08839317,0.0001245,53.2164,135.7175,88.5753,271.5382,3.9515e-05,3.41e-06,0.0,0 STARLINK-4755,1 53851U 22114AK  23317.80268519  .00000341  00000-0  39515-4 0  9992,2 53851  53.2164 135.7175 0001245  88.5753 271.5382 15.08839317 64588,6917.882,95.438,540.609,538.886,0.0
53851.0,STARLINK-4755,PAYLOAD,2023-11-13 20:51:15,15.08840267,0.0001267,53.2165,135.4199,87.705,272.4087,4.1865e-05,3.78e-06,0.0,0 STARLINK-4755,1 53851U 22114AK  23317.86892428  .00000378  00000-0  41865-4 0  9991,2 53851  53.2165 135.4199 0001267  87.7050 272.4087 15.08840267 65137,6917.88,95.438,540.621,538.868,0.0
53851.0,STARLINK-4755,PAYLOAD,2023-11-14 04:48:10,15.08837874,0.0001323,53.2174,133.9337,87.8457,272.2686,4.7871e-05,4.74e-06,0.0,0 STARLINK-4755,1 53851U 22114AK  23318.20012588  .00000474  00000-0  47871-4 0  9991,2 53851  53.2174 133.9337 0001323  87.8457 272.2686 15.08837874 65187,6917.887,95.438,540.667,538.837,0.0
53851.0,STARLINK-4755,PAYLOAD,2023-11-14 22:17:25,15.08841246,0.000132,53.2166,130.6623,87.8207,272.2936,5.7632e-05,6.29e-06,0.0,0 STARLINK-4755,1 53851U 22114AK  23318.92876394  .00000629  00000-0  57632-4 0  9991,2 53851  53.2166 130.6623 0001320  87.8207 272.2936 15.08841246 65298,6917.877,95.437,540.655,538.828,0.0
53851.0,STARLINK-4755,PAYLOAD,2023-11-15 12:35:53,15.08839572,0.0001393,53.2159,127.9859,88.9596,271.1556,6.9261e-05,8.15e-06,0.0,0 STARLINK-4755,1 53851U 22114AK  23319.52492515  .00000815  00000-0  69261-4 0  9995,2 53851  53.2159 127.9859 0001393  88.9596 271.1556 15.08839572 65388,6917.882,95.438,540.71,538.783,0.0
53851.0,STARLINK-4755,PAYLOAD,2023-11-16 10:51:17,15.08839411,0.0001403,53.216,123.8226,91.3947,268.7206,8.0614e-05,9.95e-06,0.0,0 STARLINK-4755,1 53851U 22114AK  23320.45228554  .00000995  00000-0  80614-4 0  9993,2 53851  53.2160 123.8226 0001403  91.3947 268.7206 15.08839411 64984,6917.882,95.438,540.718,538.777,0.0
53851.0,STARLINK-4755,PAYLOAD,2023-11-16 17:12:49,15.08840516,0.0001368,53.216,122.6331,92.7222,267.3927,8.3278e-05,1.038e-05,0.0,0 STARLINK-4755,1 53851U 22114AK  23320.71724440  .00001038  00000-0  83278-4 0  9995,2 53851  53.2160 122.6331 0001368  92.7222 267.3927 15.08840516 65567,6917.879,95.438,540.69,538.797,0.0
53851.0,STARLINK-4755,PAYLOAD,2023-11-17 10:42:04,15.08838541,0.0001425,53.2167,119.3631,88.7176,271.3979,3.8741e-05,3.29e-06,0.0,0 STARLINK-4755,1 53851U 22114AK  23321.44588711  .00000329  00000-0  38741-4 0  9992,2 53851  53.2167 119.3631 0001425  88.7176 271.3979 15.08838541 65676,6917.885,95.438,540.736,538.764,0.0
